1 44881U 19093C   21196.22712291  .00000044  00000-0  12441-4 0  9996
2 44881  97.9239 274.7531 0014416 197.9317 162.1371 14.81462705 84841